{
  "type": "FeatureCollection",
  "features": [
    {
      "type": "Feature",
      "properties": {
        "norad_id": 67081,
        "name": "STARLINK-35864",
        "group": "last-30-days",
        "lat": -22.68565652770993,
        "lon": -151.48031610152722,
        "alt_km": 321.57968435721796,
        "timestamp": "2025-12-24T05:51:18.329081+00:00",
        "meta_object_name": "STARLINK-35864",
        "meta_object_id": "2025-298G",
        "meta_epoch": "2025-12-23T22:00:01.999584",
        "meta_mean_motion": 15.85706655,
        "meta_eccentricity": 0.00038076,
        "meta_inclination": 69.9967,
        "meta_ra_of_asc_node": 218.2196,
        "meta_arg_of_pericenter": 272.0304,
        "meta_mean_anomaly": 356.8746,
        "meta_ephemeris_type": 0,
        "meta_classification_type": "U",
        "meta_norad_cat_id": 67081,
        "meta_element_set_no": 999,
        "meta_rev_at_epoch": 277,
        "meta_bstar": -0.0080325011,
        "meta_mean_motion_dot": -0.01700064,
        "meta_mean_motion_ddot": 0,
        "tle_line1": "1 67081U 25298G   25357.91668981 -.01700064  00000+0 -80325-2 0  9997",
        "tle_line2": "2 67081  69.9967 218.2196 0003807 272.0304 356.8746 15.85706655  2778"
      },
      "geometry": {
        "type": "Point",
        "coordinates": [
          -151.48031610152722,
          -22.68565652770993
        ]
      }
    },
    {
      "type": "Feature",
      "properties": {
        "norad_id": 67082,
        "name": "STARLINK-36035",
        "group": "last-30-days",
        "lat": -20.749514481821084,
        "lon": -150.656537999006,
        "alt_km": 321.4949614111547,
        "timestamp": "2025-12-24T05:51:18.329093+00:00",
        "meta_object_name": "STARLINK-36035",
        "meta_object_id": "2025-298H",
        "meta_epoch": "2025-12-23T22:00:01.999584",
        "meta_mean_motion": 15.85698492,
        "meta_eccentricity": 0.00037813,
        "meta_inclination": 69.9966,
        "meta_ra_of_asc_node": 218.2173,
        "meta_arg_of_pericenter": 272.8506,
        "meta_mean_anomaly": 358.1475,
        "meta_ephemeris_type": 0,
        "meta_classification_type": "U",
        "meta_norad_cat_id": 67082,
        "meta_element_set_no": 999,
        "meta_rev_at_epoch": 277,
        "meta_bstar": -0.0080301772,
        "meta_mean_motion_dot": -0.01699018,
        "meta_mean_motion_ddot": 0,
        "tle_line1": "1 67082U 25298H   25357.91668981 -.01699018  00000+0 -80302-2 0  9999",
        "tle_line2": "2 67082  69.9966 218.2173 0003781 272.8506 358.1475 15.85698492  2779"
      },
      "geometry": {
        "type": "Point",
        "coordinates": [
          -150.656537999006,
          -20.749514481821084
        ]
      }
    },
    {
      "type": "Feature",
      "properties": {
        "norad_id": 67083,
        "name": "STARLINK-36170",
        "group": "last-30-days",
        "lat": -18.768983021317844,
        "lon": -149.83746387706034,
        "alt_km": 321.48414636408233,
        "timestamp": "2025-12-24T05:51:18.329105+00:00",
        "meta_object_name": "STARLINK-36170",
        "meta_object_id": "2025-298J",
        "meta_epoch": "2025-12-23T22:00:01.999584",
        "meta_mean_motion": 15.85695966,
        "meta_eccentricity": 0.00038639,
        "meta_inclination": 69.9965,
        "meta_ra_of_asc_node": 218.2146,
        "meta_arg_of_pericenter": 270.6577,
        "meta_mean_anomaly": 2.468,
        "meta_ephemeris_type": 0,
        "meta_classification_type": "U",
        "meta_norad_cat_id": 67083,
        "meta_element_set_no": 999,
        "meta_rev_at_epoch": 277,
        "meta_bstar": -0.0080239274,
        "meta_mean_motion_dot": -0.01697794,
        "meta_mean_motion_ddot": 0,
        "tle_line1": "1 67083U 25298J   25357.91668981 -.01697794  00000+0 -80239-2 0  9998",
        "tle_line2": "2 67083  69.9965 218.2146 0003863 270.6577   2.4680 15.85695966  2774"
      },
      "geometry": {
        "type": "Point",
        "coordinates": [
          -149.83746387706034,
          -18.768983021317844
        ]
      }
    },
    {
      "type": "Feature",
      "properties": {
        "norad_id": 67084,
        "name": "STARLINK-36166",
        "group": "last-30-days",
        "lat": -16.89180306794234,
        "lon": -149.08013715115595,
        "alt_km": 321.3309685614786,
        "timestamp": "2025-12-24T05:51:18.329115+00:00",
        "meta_object_name": "STARLINK-36166",
        "meta_object_id": "2025-298K",
        "meta_epoch": "2025-12-23T22:00:01.999584",
        "meta_mean_motion": 15.85690347,
        "meta_eccentricity": 0.00038187,
        "meta_inclination": 69.9964,
        "meta_ra_of_asc_node": 218.212,
        "meta_arg_of_pericenter": 272.8473,
        "meta_mean_anomaly": 2.2996,
        "meta_ephemeris_type": 0,
        "meta_classification_type": "U",
        "meta_norad_cat_id": 67084,
        "meta_element_set_no": 999,
        "meta_rev_at_epoch": 271,
        "meta_bstar": -0.0080397948,
        "meta_mean_motion_dot": -0.01700241,
        "meta_mean_motion_ddot": 0,
        "tle_line1": "1 67084U 25298K   25357.91668981 -.01700241  00000+0 -80398-2 0  9997",
        "tle_line2": "2 67084  69.9964 218.2120 0003818 272.8473   2.2996 15.85690347  2715"
      },
      "geometry": {
        "type": "Point",
        "coordinates": [
          -149.08013715115595,
          -16.89180306794234
        ]
      }
    },
    {
      "type": "Feature",
      "properties": {
        "norad_id": 67085,
        "name": "STARLINK-35794",
        "group": "last-30-days",
        "lat": -15.039207292641866,
        "lon": -148.34821457434353,
        "alt_km": 321.74282884306285,
        "timestamp": "2025-12-24T05:51:18.329125+00:00",
        "meta_object_name": "STARLINK-35794",
        "meta_object_id": "2025-298L",
        "meta_epoch": "2025-12-23T22:00:01.999584",
        "meta_mean_motion": 15.8563599,
        "meta_eccentricity": 0.00038901,
        "meta_inclination": 69.9965,
        "meta_ra_of_asc_node": 218.2096,
        "meta_arg_of_pericenter": 261.9853,
        "meta_mean_anomaly": 15.178,
        "meta_ephemeris_type": 0,
        "meta_classification_type": "U",
        "meta_norad_cat_id": 67085,
        "meta_element_set_no": 999,
        "meta_rev_at_epoch": 277,
        "meta_bstar": -0.0077518653,
        "meta_mean_motion_dot": -0.01643458,
        "meta_mean_motion_ddot": 0,
        "tle_line1": "1 67085U 25298L   25357.91668981 -.01643458  00000+0 -77519-2 0  9995",
        "tle_line2": "2 67085  69.9965 218.2096 0003890 261.9853  15.1780 15.85635990  2773"
      },
      "geometry": {
        "type": "Point",
        "coordinates": [
          -148.34821457434353,
          -15.039207292641866
        ]
      }
    },
    {
      "type": "Feature",
      "properties": {
        "norad_id": 67086,
        "name": "STARLINK-35841",
        "group": "last-30-days",
        "lat": -12.962117659971806,
        "lon": -147.54367325837347,
        "alt_km": 321.32716569945933,
        "timestamp": "2025-12-24T05:51:18.329135+00:00",
        "meta_object_name": "STARLINK-35841",
        "meta_object_id": "2025-298M",
        "meta_epoch": "2025-12-23T22:00:01.999584",
        "meta_mean_motion": 15.85675015,
        "meta_eccentricity": 0.00037479,
        "meta_inclination": 69.9964,
        "meta_ra_of_asc_node": 218.207,
        "meta_arg_of_pericenter": 269.1076,
        "meta_mean_anomaly": 10.258,
        "meta_ephemeris_type": 0,
        "meta_classification_type": "U",
        "meta_norad_cat_id": 67086,
        "meta_element_set_no": 999,
        "meta_rev_at_epoch": 277,
        "meta_bstar": -0.0080184965,
        "meta_mean_motion_dot": -0.01695146,
        "meta_mean_motion_ddot": 0,
        "tle_line1": "1 67086U 25298M   25357.91668981 -.01695146  00000+0 -80185-2 0  9990",
        "tle_line2": "2 67086  69.9964 218.2070 0003747 269.1076  10.2580 15.85675015  2779"
      },
      "geometry": {
        "type": "Point",
        "coordinates": [
          -147.54367325837347,
          -12.962117659971806
        ]
      }
    },
    {
      "type": "Feature",
      "properties": {
        "norad_id": 67087,
        "name": "STARLINK-35842",
        "group": "last-30-days",
        "lat": -11.352197936108105,
        "lon": -146.9302529654631,
        "alt_km": 321.7192934975719,
        "timestamp": "2025-12-24T05:51:18.329144+00:00",
        "meta_object_name": "STARLINK-35842",
        "meta_object_id": "2025-298N",
        "meta_epoch": "2025-12-23T22:00:01.999584",
        "meta_mean_motion": 15.85827394,
        "meta_eccentricity": 0.00038961,
        "meta_inclination": 69.9963,
        "meta_ra_of_asc_node": 218.2047,
        "meta_arg_of_pericenter": 271.2534,
        "meta_mean_anomaly": 9.8783,
        "meta_ephemeris_type": 0,
        "meta_classification_type": "U",
        "meta_norad_cat_id": 67087,
        "meta_element_set_no": 999,
        "meta_rev_at_epoch": 277,
        "meta_bstar": -0.010486057,
        "meta_mean_motion_dot": -0.02198012,
        "meta_mean_motion_ddot": 0,
        "tle_line1": "1 67087U 25298N   25357.91668981 -.02198012  00000+0 -10486-1 0  9998",
        "tle_line2": "2 67087  69.9963 218.2047 0003896 271.2534   9.8783 15.85827394  2779"
      },
      "geometry": {
        "type": "Point",
        "coordinates": [
          -146.9302529654631,
          -11.352197936108105
        ]
      }
    }
  ]
}